{
  "restaurants": [
    {
      "id": 1,
      "name": "La Casa del Sabor",
      "address": "Av. República 1123",
      "postcode": "170501",
      "rating": 4.6,
      "typeOfFood": "Comida Ecuatoriana"
    },
    {
      "id": 2,
      "name": "Pasta Bella",
      "address": "Calle Italia 456",
      "postcode": "170302",
      "rating": 4.4,
      "typeOfFood": "Italiana"
    },
    {
      "id": 3,
      "name": "El Rincón Mexicano",
      "address": "Av. México 789",
      "postcode": "170104",
      "rating": 4.7,
      "typeOfFood": "Mexicana"
    },
    {
      "id": 4,
      "name": "Sushi Go!",
      "address": "Calle Japón 221",
      "postcode": "170605",
      "rating": 4.5,
      "typeOfFood": "Japonesa"
    },
    {
      "id": 5,
      "name": "Burger Town",
      "address": "Av. América 998",
      "postcode": "170507",
      "rating": 4.2,
      "typeOfFood": "Hamburguesas"
    },
    {
      "id": 6,
      "name": "El Buen Asado",
      "address": "Calle Argentina 310",
      "postcode": "170204",
      "rating": 4.8,
      "typeOfFood": "Parrillada"
    },
    {
      "id": 7,
      "name": "Delicias Chinas",
      "address": "Av. Oriente 55",
      "postcode": "170401",
      "rating": 4.3,
      "typeOfFood": "China"
    },
    {
      "id": 8,
      "name": "Café Central",
      "address": "Calle Sucre 12",
      "postcode": "170101",
      "rating": 4.9,
      "typeOfFood": "Café / Postres"
    },
    {
      "id": 9,
      "name": "La Marisquería",
      "address": "Av. Costa 777",
      "postcode": "170806",
      "rating": 4.6,
      "typeOfFood": "Mariscos"
    },
    {
      "id": 10,
      "name": "K-BBQ House",
      "address": "Calle Corea 990",
      "postcode": "170704",
      "rating": 4.7,
      "typeOfFood": "Coreana"
    },
    {
      "id": 11,
      "name": "Pizza Express",
      "address": "Av. Europa 678",
      "postcode": "170509",
      "rating": 4.1,
      "typeOfFood": "Pizza"
    },
    {
      "id": 12,
      "name": "Sabores del Perú",
      "address": "Calle Lima 312",
      "postcode": "170203",
      "rating": 4.8,
      "typeOfFood": "Peruana"
    },
    {
      "id": 13,
      "name": "Tacos y Más",
      "address": "Av. Libertad 445",
      "postcode": "170114",
      "rating": 4.5,
      "typeOfFood": "Mexicana"
    },
    {
      "id": 14,
      "name": "Veggie Land",
      "address": "Calle Verde 222",
      "postcode": "170350",
      "rating": 4.4,
      "typeOfFood": "Vegana"
    },
    {
      "id": 15,
      "name": "Ramen Station",
      "address": "Av. Tokio 811",
      "postcode": "170704",
      "rating": 4.7,
      "typeOfFood": "Japonesa"
    },
    {
      "id": 16,
      "name": "La Panadería Real",
      "address": "Calle Real 301",
      "postcode": "170205",
      "rating": 4.9,
      "typeOfFood": "Panadería"
    },
    {
      "id": 17,
      "name": "Asados Don Pepe",
      "address": "Av. Colón 1020",
      "postcode": "170526",
      "rating": 4.3,
      "typeOfFood": "Parrillada"
    },
    {
      "id": 18,
      "name": "Thai Fusion",
      "address": "Calle Bangkok 600",
      "postcode": "170709",
      "rating": 4.6,
      "typeOfFood": "Tailandesa"
    },
    {
      "id": 19,
      "name": "El Fogón Criollo",
      "address": "Av. de los Shyris 150",
      "postcode": "170518",
      "rating": 4.5,
      "typeOfFood": "Comida Típica"
    },
    {
      "id": 20,
      "name": "Bistró Paris",
      "address": "Calle París 1515",
      "postcode": "170553",
      "rating": 4.8,
      "typeOfFood": "Francesa"
    }
  ]
}
